start=new Date('2022-10-04T00:00:00.000Z').valueOf();
sats=[{"MEAN_ANOMALY":"101.0191","MEAN_MOTION_DDOT":"0.0000000000000","CENTER_NAME":"EARTH","INCLINATION":"70.0006","BSTAR":"-0.00005908200000","ARG_OF_PERICENTER":"259.0582","CLASSIFICATION_TYPE":"U","COUNTRY_CODE":"US","ECCENTRICITY":"0.00034270","LAUNCH_DATE":"2021-09-14","MEAN_MOTION_DOT":"-0.00000798","NORAD_CAT_ID":"49131","EPOCH":"2022-10-03T21:01:32.603520","TLE_LINE2":"2 49131  70.0006 173.2339 0003427 259.0582 101.0191 14.98345278 59309","OBJECT_ID":"2021-082B","DECAY_DATE":null,"EPHEMERIS_TYPE":"0","OBJECT_TYPE":"PAYLOAD","MEAN_ELEMENT_THEORY":"SGP4","TLE_LINE1":"1 49131U 21082B   22276.87607180 -.00000798  00000-0 -59082-4 0  9991","PERIOD":"96.106","SITE":"AFWTR","REV_AT_EPOCH":"5930","ELEMENT_SET_NO":"999","FILE":"3590585","RA_OF_ASC_NODE":"173.2339","APOAPSIS":"574.392","REF_FRAME":"TEME","PERIAPSIS":"569.629","SEMIMAJOR_AXIS":"6950.146","TIME_SYSTEM":"UTC","MEAN_MOTION":"14.98345278","OBJECT_NAME":"STARLINK-3096","GP_ID":"214119740","RCS_SIZE":"LARGE"},{"LAUNCH_DATE":"2021-09-14","ECCENTRICITY":"0.00031450","MEAN_MOTION_DOT":"0.00002959","COUNTRY_CODE":"US","ARG_OF_PERICENTER":"254.4908","BSTAR":"0.00025564000000","CLASSIFICATION_TYPE":"U","CENTER_NAME":"EARTH","INCLINATION":"70.0015","MEAN_MOTION_DDOT":"0.0000000000000","MEAN_ANOMALY":"105.5904","TIME_SYSTEM":"UTC","PERIAPSIS":"569.840","SEMIMAJOR_AXIS":"6950.161","OBJECT_NAME":"STARLINK-3090","GP_ID":"214119992","RCS_SIZE":"LARGE","MEAN_MOTION":"14.98340431","FILE":"3590585","RA_OF_ASC_NODE":"213.9858","APOAPSIS":"574.211","REV_AT_EPOCH":"5827","ELEMENT_SET_NO":"999","REF_FRAME":"TEME","MEAN_ELEMENT_THEORY":"SGP4","OBJECT_TYPE":"PAYLOAD","EPHEMERIS_TYPE":"0","PERIOD":"96.106","SITE":"AFWTR","TLE_LINE1":"1 49132U 21082C   22276.57505290  .00002959  00000-0  25564-3 0  9994","TLE_LINE2":"2 49132  70.0015 213.9858 0003145 254.4908 105.5904 14.98340431 58278","NORAD_CAT_ID":"49132","EPOCH":"2022-10-03T13:48:04.570560","DECAY_DATE":null,"OBJECT_ID":"2021-082C"},{"BSTAR":"0.00142640000000","ARG_OF_PERICENTER":"243.6669","CLASSIFICATION_TYPE":"U","COUNTRY_CODE":"US","LAUNCH_DATE":"2021-09-14","MEAN_MOTION_DOT":"0.00016983","ECCENTRICITY":"0.00034050","MEAN_ANOMALY":"116.4140","MEAN_MOTION_DDOT":"0.0000000000000","CENTER_NAME":"EARTH","INCLINATION":"70.0008","ELEMENT_SET_NO":"999","REV_AT_EPOCH":"5831","RA_OF_ASC_NODE":"213.3348","APOAPSIS":"574.319","FILE":"3590585","REF_FRAME":"TEME","SEMIMAJOR_AXIS":"6950.087","PERIAPSIS":"569.586","TIME_SYSTEM":"UTC","MEAN_MOTION":"14.98364214","RCS_SIZE":"LARGE","OBJECT_NAME":"STARLINK-3077","GP_ID":"214120236","NORAD_CAT_ID":"49133","EPOCH":"2022-10-03T20:05:45.687840","TLE_LINE2":"2 49133  70.0008 213.3348 0003405 243.6669 116.4140 14.98364214 58315","OBJECT_ID":"2021-082D","DECAY_DATE":null,"EPHEMERIS_TYPE":"0","OBJECT_TYPE":"PAYLOAD","MEAN_ELEMENT_THEORY":"SGP4","TLE_LINE1":"1 49133U 21082D   22276.83733435  .00016983  00000-0  14264-2 0  9994","SITE":"AFWTR","PERIOD":"96.105"},{"TLE_LINE1":"1 49134U 21082E   22276.56551793  .00004834  00000-0  41243-3 0  9990","PERIOD":"96.106","SITE":"AFWTR","EPHEMERIS_TYPE":"0","MEAN_ELEMENT_THEORY":"SGP4","OBJECT_TYPE":"PAYLOAD","OBJECT_ID":"2021-082E","DECAY_DATE":null,"EPOCH":"2022-10-03T13:34:20.749152","NORAD_CAT_ID":"49134","TLE_LINE2":"2 49134  70.0014 214.0283 0003159 257.7261 102.3544 14.98349278 59472","MEAN_MOTION":"14.98349278","GP_ID":"214088733","OBJECT_NAME":"STARLINK-3078","RCS_SIZE":"LARGE","PERIAPSIS":"569.803","SEMIMAJOR_AXIS":"6950.133","TIME_SYSTEM":"UTC","REF_FRAME":"TEME","REV_AT_EPOCH":"5947","ELEMENT_SET_NO":"999","FILE":"3590320","APOAPSIS":"574.194","RA_OF_ASC_NODE":"214.0283","INCLINATION":"70.0014","CENTER_NAME":"EARTH","MEAN_ANOMALY":"102.3544","MEAN_MOTION_DDOT":"0.0000000000000","COUNTRY_CODE":"US","LAUNCH_DATE":"2021-09-14","ECCENTRICITY":"0.00031590","MEAN_MOTION_DOT":"0.00004834","CLASSIFICATION_TYPE":"U","BSTAR":"0.00041243000000","ARG_OF_PERICENTER":"257.7261"},{"BSTAR":"0.00016063000000","ARG_OF_PERICENTER":"258.4055","CLASSIFICATION_TYPE":"U","COUNTRY_CODE":"US","LAUNCH_DATE":"2021-09-14","MEAN_MOTION_DOT":"0.00001748","ECCENTRICITY":"0.00030050","MEAN_ANOMALY":"101.6766","MEAN_MOTION_DDOT":"0.0000000000000","CENTER_NAME":"EARTH","INCLINATION":"70.0026","ELEMENT_SET_NO":"999","REV_AT_EPOCH":"5931","APOAPSIS":"579.110","RA_OF_ASC_NODE":"173.2277","FILE":"3590535","REF_FRAME":"TEME","SEMIMAJOR_AXIS":"6955.155","PERIAPSIS":"574.930","TIME_SYSTEM":"UTC","MEAN_MOTION":"14.96726705","RCS_SIZE":"LARGE","OBJECT_NAME":"STARLINK-3073","GP_ID":"214095428","NORAD_CAT_ID":"49135","EPOCH":"2022-10-03T20:53:03.261696","TLE_LINE2":"2 49135  70.0026 173.2277 0003005 258.4055 101.6766 14.96726705 59317","OBJECT_ID":"2021-082F","DECAY_DATE":null,"EPHEMERIS_TYPE":"0","OBJECT_TYPE":"PAYLOAD","MEAN_ELEMENT_THEORY":"SGP4","TLE_LINE1":"1 49135U 21082F   22276.87017664  .00001748  00000-0  16063-3 0  9992","SITE":"AFWTR","PERIOD":"96.210"},{"COUNTRY_CODE":"US","LAUNCH_DATE":"2021-09-14","MEAN_MOTION_DOT":"0.00007403","ECCENTRICITY":"0.00034760","CLASSIFICATION_TYPE":"U","BSTAR":"0.00062724000000","ARG_OF_PERICENTER":"237.8981","INCLINATION":"70.0014","CENTER_NAME":"EARTH","MEAN_ANOMALY":"122.1840","MEAN_MOTION_DDOT":"0.0000000000000","MEAN_MOTION":"14.98347787","RCS_SIZE":"LARGE","GP_ID":"214120492","OBJECT_NAME":"STARLINK-3084","SEMIMAJOR_AXIS":"6950.138","PERIAPSIS":"569.587","TIME_SYSTEM":"UTC","REF_FRAME":"TEME","ELEMENT_SET_NO":"999","REV_AT_EPOCH":"5882","APOAPSIS":"574.419","RA_OF_ASC_NODE":"193.2587","FILE":"3590585","TLE_LINE1":"1 49136U 21082G   22276.86726313  .00007403  00000-0  62724-3 0  9999","SITE":"AFWTR","PERIOD":"96.106","EPHEMERIS_TYPE":"0","OBJECT_TYPE":"PAYLOAD","MEAN_ELEMENT_THEORY":"SGP4","OBJECT_ID":"2021-082G","DECAY_DATE":null,"NORAD_CAT_ID":"49136","EPOCH":"2022-10-03T20:48:51.534432","TLE_LINE2":"2 49136  70.0014 193.2587 0003476 237.8981 122.1840 14.98347787 58829"},{"CLASSIFICATION_TYPE":"U","BSTAR":"0.00039758000000","ARG_OF_PERICENTER":"258.3703","COUNTRY_CODE":"US","MEAN_MOTION_DOT":"0.00004656","LAUNCH_DATE":"2021-09-14","ECCENTRICITY":"0.00031120","MEAN_ANOMALY":"101.7107","MEAN_MOTION_DDOT":"0.0000000000000","INCLINATION":"70.0020","CENTER_NAME":"EARTH","REF_FRAME":"TEME","ELEMENT_SET_NO":"999","REV_AT_EPOCH":"5881","RA_OF_ASC_NODE":"193.2801","APOAPSIS":"574.178","FILE":"3590535","MEAN_MOTION":"14.98343724","RCS_SIZE":"LARGE","GP_ID":"214095425","OBJECT_NAME":"STARLINK-3055","SEMIMAJOR_AXIS":"6950.150","PERIAPSIS":"569.853","TIME_SYSTEM":"UTC","OBJECT_ID":"2021-082H","DECAY_DATE":null,"NORAD_CAT_ID":"49137","EPOCH":"2022-10-03T20:41:59.733888","TLE_LINE2":"2 49137  70.0020 193.2801 0003112 258.3703 101.7107 14.98343724 58818","TLE_LINE1":"1 49137U 21082H   22276.86249692  .00004656  00000-0  39758-3 0  9998","SITE":"AFWTR","PERIOD":"96.106","EPHEMERIS_TYPE":"0","MEAN_ELEMENT_THEORY":"SGP4","OBJECT_TYPE":"PAYLOAD"},{"OBJECT_TYPE":"PAYLOAD","MEAN_ELEMENT_THEORY":"SGP4","EPHEMERIS_TYPE":"0","SITE":"AFWTR","PERIOD":"96.107","TLE_LINE1":"1 49138U 21082J   22276.56075432  .00006734  00000-0  57164-3 0  9995","TLE_LINE2":"2 49138  70.0009 214.0414 0002982 248.9836 111.1004 14.98326703 58273","NORAD_CAT_ID":"49138","EPOCH":"2022-10-03T13:27:29.173248","DECAY_DATE":null,"OBJECT_ID":"2021-082J","TIME_SYSTEM":"UTC","SEMIMAJOR_AXIS":"6950.203","PERIAPSIS":"569.996","RCS_SIZE":"LARGE","GP_ID":"214095935","OBJECT_NAME":"STARLINK-3058","MEAN_MOTION":"14.98326703","RA_OF_ASC_NODE":"214.0414","APOAPSIS":"574.141","FILE":"3590536","ELEMENT_SET_NO":"999","REV_AT_EPOCH":"5827","REF_FRAME":"TEME","CENTER_NAME":"EARTH","INCLINATION":"70.0009","MEAN_MOTION_DDOT":"0.0000000000000","MEAN_ANOMALY":"111.1004","LAUNCH_DATE":"2021-09-14","MEAN_MOTION_DOT":"0.00006734","ECCENTRICITY":"0.00029820","COUNTRY_CODE":"US","ARG_OF_PERICENTER":"248.9836","BSTAR":"0.00057164000000","CLASSIFICATION_TYPE":"U"},{"COUNTRY_CODE":"US","LAUNCH_DATE":"2021-09-14","MEAN_MOTION_DOT":"0.00001728","ECCENTRICITY":"0.00030460","CLASSIFICATION_TYPE":"U","BSTAR":"0.00015891000000","ARG_OF_PERICENTER":"261.1587","INCLINATION":"70.0018","CENTER_NAME":"EARTH","MEAN_ANOMALY":"98.9226","MEAN_MOTION_DDOT":"0.0000000000000","MEAN_MOTION":"14.96731391","RCS_SIZE":"LARGE","GP_ID":"214095947","OBJECT_NAME":"STARLINK-3057","SEMIMAJOR_AXIS":"6955.141","PERIAPSIS":"574.887","TIME_SYSTEM":"UTC","REF_FRAME":"TEME","ELEMENT_SET_NO":"999","REV_AT_EPOCH":"5930","APOAPSIS":"579.124","RA_OF_ASC_NODE":"173.2516","FILE":"3590536","TLE_LINE1":"1 49139U 21082K   22276.86041041  .00001728  00000-0  15891-3 0  9997","SITE":"AFWTR","PERIOD":"96.210","EPHEMERIS_TYPE":"0","MEAN_ELEMENT_THEORY":"SGP4","OBJECT_TYPE":"PAYLOAD","OBJECT_ID":"2021-082K","DECAY_DATE":null,"NORAD_CAT_ID":"49139","EPOCH":"2022-10-03T20:38:59.459424","TLE_LINE2":"2 49139  70.0018 173.2516 0003046 261.1587  98.9226 14.96731391 59309"},{"LAUNCH_DATE":"2021-09-14","MEAN_MOTION_DOT":"0.00017059","ECCENTRICITY":"0.00031550","COUNTRY_CODE":"US","CLASSIFICATION_TYPE":"U","ARG_OF_PERICENTER":"258.5576","BSTAR":"0.00149390000000","INCLINATION":"70.0018","CENTER_NAME":"EARTH","MEAN_MOTION_DDOT":"0.0000000000000","MEAN_ANOMALY":"101.5228","GP_ID":"214119993","OBJECT_NAME":"STARLINK-3118","RCS_SIZE":"LARGE","MEAN_MOTION":"14.96737535","TIME_SYSTEM":"UTC","PERIAPSIS":"574.792","SEMIMAJOR_AXIS":"6955.122","REF_FRAME":"TEME","FILE":"3590585","APOAPSIS":"579.181","RA_OF_ASC_NODE":"173.4422","REV_AT_EPOCH":"5929","ELEMENT_SET_NO":"999","PERIOD":"96.209","SITE":"AFWTR","TLE_LINE1":"1 49140U 21082L   22276.78385467  .00017059  00000-0  14939-2 0  9998","OBJECT_TYPE":"PAYLOAD","MEAN_ELEMENT_THEORY":"SGP4","EPHEMERIS_TYPE":"0","DECAY_DATE":null,"OBJECT_ID":"2021-082L","TLE_LINE2":"2 49140  70.0018 173.4422 0003155 258.5576 101.5228 14.96737535 59295","NORAD_CAT_ID":"49140","EPOCH":"2022-10-03T18:48:45.043488"}];
